NORAD_CAT_ID,OBJECT_NAME,OBJECT_TYPE,EPOCH,MEAN_MOTION,ECCENTRICITY,INCLINATION,RA_OF_ASC_NODE,ARG_OF_PERICENTER,MEAN_ANOMALY,BSTAR,MEAN_MOTION_DOT,MEAN_MOTION_DDOT,TLE_LINE0,TLE_LINE1,TLE_LINE2,SEMIMAJOR_AXIS,PERIOD,APOGEE,PERIGEE,DECAYED
55939.0,STARLINK-5918,PAYLOAD,2024-04-20 13:05:57,14.98328286,0.0002862,70.0006,219.4774,281.5205,78.5633,0.00021806,2.51e-05,0.0,0 STARLINK-5918,1 55939U 23037AB  24111.54579975  .00002510  00000-0  21806-3 0  9994,2 55939  70.0006 219.4774 0002862 281.5205  78.5633 14.98328286 61247,6950.198,96.107,574.052,570.074,0.0
55939.0,STARLINK-5918,PAYLOAD,2024-04-20 14:42:05,14.98325934,0.0002781,70.0018,219.3113,277.6579,82.4264,0.00019462,2.23e-05,0.0,0 STARLINK-5918,1 55939U 23037AB  24111.61256202  .00002230  00000-0  19462-3 0  9991,2 55939  70.0018 219.3113 0002781 277.6579  82.4264 14.98325934 60910,6950.205,96.107,574.003,570.138,0.0
55939.0,STARLINK-5918,PAYLOAD,2024-04-20 16:18:15,14.98301421,0.0002382,70.0012,219.1425,273.6526,86.436,-9.439e-05,-1.218e-05,0.0,0 STARLINK-5918,1 55939U 23037AB  24111.67934539 -.00001218  00000-0 -94390-4 0  9994,2 55939  70.0012 219.1425 0002382 273.6526  86.4360 14.98301421 61268,6950.281,96.109,573.802,570.491,0.0
55939.0,STARLINK-5918,PAYLOAD,2024-04-21 13:07:59,14.98330072,0.0002607,70.0036,216.9584,258.0802,102.0065,-0.00040571,-4.93e-05,0.0,0 STARLINK-5918,1 55939U 23037AB  24112.54722118 -.00004930  00000-0 -40571-3 0  9994,2 55939  70.0036 216.9584 0002607 258.0802 102.0065 14.98330072 61394,6950.193,96.107,573.87,570.246,0.0
55939.0,STARLINK-5918,PAYLOAD,2024-04-21 16:20:14,14.98344637,0.0003034,70.0013,216.6188,260.8236,99.258,-0.0002842,-3.484e-05,0.0,0 STARLINK-5918,1 55939U 23037AB  24112.68072748 -.00003484  00000-0 -28420-3 0  9998,2 55939  70.0013 216.6188 0003034 260.8236  99.2580 14.98344637 61417,6950.148,96.106,574.121,569.904,0.0
55939.0,STARLINK-5918,PAYLOAD,2024-04-22 09:57:44,14.98330351,0.000275,70.0011,214.7668,266.5452,93.5393,-0.00010576,-1.355e-05,0.0,0 STARLINK-5918,1 55939U 23037AB  24113.41509694 -.00001355  00000-0 -10576-3 0  9993,2 55939  70.0011 214.7668 0002750 266.5452  93.5393 14.98330351 61523,6950.192,96.107,573.968,570.146,0.0
55939.0,STARLINK-5918,PAYLOAD,2024-04-22 16:22:16,14.9833639,0.0002525,70.0021,214.0971,249.7256,110.3632,-5.6705e-05,-7.7e-06,0.0,0 STARLINK-5918,1 55939U 23037AB  24113.68213158 -.00000770  00000-0 -56705-4 0  9994,2 55939  70.0021 214.0971 0002525 249.7256 110.3632 14.98336390 61566,6950.173,96.107,573.793,570.283,0.0
55939.0,STARLINK-5918,PAYLOAD,2024-04-23 13:12:01,14.98327423,0.0002538,70.0024,211.9083,252.038,108.0503,0.00011483,1.277e-05,0.0,0 STARLINK-5918,1 55939U 23037AB  24114.55001751  .00001277  00000-0  11483-3 0  9999,2 55939  70.0024 211.9083 0002538 252.0380 108.0503 14.98327423 61690,6950.201,96.107,573.83,570.302,0.0
55939.0,STARLINK-5918,PAYLOAD,2024-04-23 14:48:09,14.98330512,0.0002603,70.0025,211.7409,254.3556,105.7316,0.00014758,1.668e-05,0.0,0 STARLINK-5918,1 55939U 23037AB  24114.61677459  .00001668  00000-0  14758-3 0  9992,2 55939  70.0025 211.7409 0002603 254.3556 105.7316 14.98330512 61367,6950.191,96.107,573.865,570.247,0.0
55939.0,STARLINK-5918,PAYLOAD,2024-04-23 16:24:17,14.9833043,0.0002556,70.0031,211.574,248.4457,111.643,0.00017434,1.988e-05,0.0,0 STARLINK-5918,1 55939U 23037AB  24114.68353369  .00001988  00000-0  17434-3 0  9999,2 55939  70.0031 211.5740 0002556 248.4457 111.6430 14.98330430 61374,6950.192,96.107,573.833,570.28,0.0
55939.0,STARLINK-5918,PAYLOAD,2024-04-24 13:14:02,14.98329737,0.0002607,70.0026,209.3865,242.7168,117.3725,7.9221e-06,2e-08,0.0,0 STARLINK-5918,1 55939U 23037AB  24115.55141704  .00000002  00000-0  79221-5 0  9994,2 55939  70.0026 209.3865 0002607 242.7168 117.3725 14.98329737 61844,6950.194,96.107,573.871,570.247,0.0
55939.0,STARLINK-5918,PAYLOAD,2024-04-24 16:26:18,14.98330868,0.0002622,70.0021,209.0487,253.052,107.0352,1.4555e-05,8.1e-07,0.0,0 STARLINK-5918,1 55939U 23037AB  24115.68493652  .00000081  00000-0  14555-4 0  9995,2 55939  70.0021 209.0487 0002622 253.0520 107.0352 14.98330868 61524,6950.19,96.107,573.878,570.233,0.0
55939.0,STARLINK-5918,PAYLOAD,2024-04-25 13:16:03,14.98337628,0.0002282,70.0021,206.8584,242.0129,118.0799,-5.7618e-05,-7.8e-06,0.0,0 STARLINK-5918,1 55939U 23037AB  24116.55281330 -.00000780  00000-0 -57618-4 0  9995,2 55939  70.0021 206.8584 0002282 242.0129 118.0799 14.98337628 61991,6950.169,96.107,573.62,570.448,0.0
55939.0,STARLINK-5918,PAYLOAD,2024-04-25 14:52:11,14.98336252,0.0002574,70.002,206.6902,266.0668,94.0197,3.9948e-05,3.84e-06,0.0,0 STARLINK-5918,1 55939U 23037AB  24116.61957191  .00000384  00000-0  39948-4 0  9991,2 55939  70.0020 206.6902 0002574 266.0668  94.0197 14.98336252 61661,6950.174,96.107,573.828,570.25,0.0
55939.0,STARLINK-5918,PAYLOAD,2024-04-26 13:18:04,14.98327105,0.0002597,70.0018,204.3327,265.0028,95.0835,4.1064e-05,3.97e-06,0.0,0 STARLINK-5918,1 55939U 23037AB  24117.55421570  .00000397  00000-0  41064-4 0  9998,2 55939  70.0018 204.3327 0002597 265.0028  95.0835 14.98327105 62149,6950.202,96.107,573.872,570.262,0.0
55939.0,STARLINK-5918,PAYLOAD,2024-04-26 14:54:11,14.98331779,0.0002918,70.0007,204.1625,271.8181,88.2643,6.9403e-05,7.35e-06,0.0,0 STARLINK-5918,1 55939U 23037AB  24117.62097153  .00000735  00000-0  69403-4 0  9995,2 55939  70.0007 204.1625 0002918 271.8181  88.2643 14.98331779 61814,6950.187,96.107,574.08,570.024,0.0
55939.0,STARLINK-5918,PAYLOAD,2024-04-27 05:19:23,14.98339882,0.0002838,70.0005,202.6483,266.1743,93.9091,7.3403e-05,7.83e-06,0.0,0 STARLINK-5918,1 55939U 23037AB  24118.22180382  .00000783  00000-0  73403-4 0  9997,2 55939  70.0005 202.6483 0002838 266.1743  93.9091 14.98339882 62240,6950.162,96.106,574.0,570.055,0.0
55939.0,STARLINK-5918,PAYLOAD,2024-04-27 13:20:03,14.98345284,0.0002908,70.0009,201.8078,267.8069,92.2757,0.00011713,1.305e-05,0.0,0 STARLINK-5918,1 55939U 23037AB  24118.55559620  .00001305  00000-0  11713-3 0  9994,2 55939  70.0009 201.8078 0002908 267.8069  92.2757 14.98345284 61953,6950.146,96.106,574.032,569.99,0.0
55939.0,STARLINK-5918,PAYLOAD,2024-04-27 16:32:19,14.98348348,0.000285,70.0011,201.4709,265.1487,94.9347,0.00017092,1.948e-05,0.0,0 STARLINK-5918,1 55939U 23037AB  24118.68911142  .00001948  00000-0  17092-3 0  9998,2 55939  70.0011 201.4709 0002850 265.1487  94.9347 14.98348348 62313,6950.136,96.106,573.982,570.02,0.0
55939.0,STARLINK-5918,PAYLOAD,2024-04-28 05:21:25,14.98330395,0.0001987,69.9996,200.1213,273.7383,86.3549,-2.034e-05,-3.36e-06,0.0,0 STARLINK-5918,1 55939U 23037AB  24119.22320966 -.00000336  00000-0 -20340-4 0  9990,2 55939  69.9996 200.1213 0001987 273.7383  86.3549 14.98330395 62398,6950.192,96.107,573.438,570.676,0.0
55939.0,STARLINK-5918,PAYLOAD,2024-04-28 13:22:06,14.98314031,0.0002947,70.0004,199.2817,270.8415,89.2406,-0.00020445,-2.531e-05,0.0,0 STARLINK-5918,1 55939U 23037AB  24119.55702510 -.00002531  00000-0 -20445-3 0  9999,2 55939  70.0004 199.2817 0002947 270.8415  89.2406 14.98314031 62449,6950.242,96.108,574.156,570.059,0.0
55939.0,STARLINK-5918,PAYLOAD,2024-04-28 14:58:15,14.98314537,0.0002943,70.0004,199.1135,271.0236,89.0586,-0.00019367,-2.402e-05,0.0,0 STARLINK-5918,1 55939U 23037AB  24119.62378506 -.00002402  00000-0 -19367-3 0  9999,2 55939  70.0004 199.1135 0002943 271.0236  89.0586 14.98314537 62113,6950.241,96.108,574.151,570.06,0.0
55939.0,STARLINK-5918,PAYLOAD,2024-04-29 05:23:26,14.98325968,0.0003021,70.0004,197.5997,270.8655,89.2158,-0.00010023,-1.289e-05,0.0,0 STARLINK-5918,1 55939U 23037AB  24120.22461774 -.00001289  00000-0 -10023-3 0  9999,2 55939  70.0004 197.5997 0003021 270.8655  89.2158 14.98325968 62545,6950.205,96.107,574.17,569.971,0.0
55939.0,STARLINK-5918,PAYLOAD,2024-04-29 13:24:06,14.98332309,0.0003069,70.0004,196.758,270.1845,89.8962,-6.0493e-05,-8.15e-06,0.0,0 STARLINK-5918,1 55939U 23037AB  24120.55841348 -.00000815  00000-0 -60493-4 0  9995,2 55939  70.0004 196.7580 0003069 270.1845  89.8962 14.98332309 62254,6950.186,96.107,574.184,569.918,0.0
55939.0,STARLINK-5918,PAYLOAD,2024-04-29 15:00:14,14.98332998,0.0003057,70.0005,196.5897,270.1421,89.9388,-4.9219e-05,-6.8e-06,0.0,0 STARLINK-5918,1 55939U 23037AB  24120.62517275 -.00000680  00000-0 -49219-4 0  9995,2 55939  70.0005 196.5897 0003057 270.1421  89.9388 14.98332998 62607,6950.184,96.107,574.173,569.924,0.0
55939.0,STARLINK-5918,PAYLOAD,2024-04-30 13:26:06,14.98332891,0.0003124,70.0002,194.233,274.5503,85.5299,0.00031897,3.715e-05,0.0,0 STARLINK-5918,1 55939U 23037AB  24121.55980267  .00003715  00000-0  31897-3 0  9995,2 55939  70.0002 194.2330 0003124 274.5503  85.5299 14.98332891 62745,6950.184,96.107,574.22,569.878,0.0
55939.0,STARLINK-5918,PAYLOAD,2024-04-30 15:02:14,14.9833396,0.0003115,70.0003,194.0647,274.4913,85.589,0.0003248,3.785e-05,0.0,0 STARLINK-5918,1 55939U 23037AB  24121.62656178  .00003785  00000-0  32480-3 0  9990,2 55939  70.0003 194.0647 0003115 274.4913  85.5890 14.98333960 62418,6950.181,96.107,574.211,569.881,0.0
55939.0,STARLINK-5918,PAYLOAD,2024-05-01 05:27:28,14.98331252,0.0002934,70.0007,192.5505,273.646,86.4364,3.7623e-05,3.56e-06,0.0,0 STARLINK-5918,1 55939U 23037AB  24122.22741090  .00000356  00000-0  37623-4 0  9991,2 55939  70.0007 192.5505 0002934 273.6460  86.4364 14.98331252 62849,6950.189,96.107,574.093,570.015,0.0
55939.0,STARLINK-5918,PAYLOAD,2024-05-02 05:29:29,14.98334813,0.0002434,70.0021,190.0266,262.9746,97.1136,-8.1761e-05,-1.068e-05,0.0,0 STARLINK-5918,1 55939U 23037AB  24123.22880851 -.00001068  00000-0 -81761-4 0  9996,2 55939  70.0021 190.0266 0002434 262.9746  97.1136 14.98334813 62993,6950.178,96.107,573.735,570.351,0.0
55939.0,STARLINK-5918,PAYLOAD,2024-05-02 13:30:09,14.98333199,0.0002623,70.0012,189.1849,264.7753,95.3107,-0.00010654,-1.364e-05,0.0,0 STARLINK-5918,1 55939U 23037AB  24123.56260899 -.00001364  00000-0 -10654-3 0  9998,2 55939  70.0012 189.1849 0002623 264.7753  95.3107 14.98333199 62700,6950.183,96.107,573.871,570.225,0.0
